[{"OBJECT_NAME":"STARLINK-32624","OBJECT_ID":"2024-207Q","EPOCH":"2026-03-09T22:11:11.509728","MEAN_MOTION":15.27600835,"ECCENTRICITY":0.00012,"INCLINATION":43.0012,"RA_OF_ASC_NODE":279.9264,"ARG_OF_PERICENTER":291.0268,"MEAN_ANOMALY":69.0455,"EPHEMERIS_TYPE":0,"CLASSIFICATION_TYPE":"U","NORAD_CAT_ID":61926,"ELEMENT_SET_NO":999,"REV_AT_EPOCH":7476,"BSTAR":0.0010669695,"MEAN_MOTION_DOT":0.00029234,"MEAN_MOTION_DDOT":0},{"OBJECT_NAME":"FLOCK 4G-6","OBJECT_ID":"2025-009BD","EPOCH":"2026-03-09T17:03:16.973568","MEAN_MOTION":15.27432125,"ECCENTRICITY":0.00023795,"INCLINATION":97.398,"RA_OF_ASC_NODE":150.7943,"ARG_OF_PERICENTER":348.2637,"MEAN_ANOMALY":11.8546,"EPHEMERIS_TYPE":0,"CLASSIFICATION_TYPE":"U","NORAD_CAT_ID":62660,"ELEMENT_SET_NO":999,"REV_AT_EPOCH":12130,"BSTAR":0.00045909501,"MEAN_MOTION_DOT":0.00012261,"MEAN_MOTION_DDOT":0}]
